COMMENT,ORIGINATOR,NORAD_CAT_ID,OBJECT_NAME,OBJECT_TYPE,CLASSIFICATION_TYPE,INTLDES,EPOCH,EPOCH_MICROSECONDS,MEAN_MOTION,ECCENTRICITY,INCLINATION,RA_OF_ASC_NODE,ARG_OF_PERICENTER,MEAN_ANOMALY,EPHEMERIS_TYPE,ELEMENT_SET_NO,REV_AT_EPOCH,BSTAR,MEAN_MOTION_DOT,MEAN_MOTION_DDOT,FILE,TLE_LINE0,TLE_LINE1,TLE_LINE2,OBJECT_ID,OBJECT_NUMBER,SEMIMAJOR_AXIS,PERIOD,APOGEE,PERIGEE,DECAYED
GENERATED VIA SPACETRACK.ORG API,18 SPCS,58292,UMBRA-08,PAYLOAD,U,23174AN,2025-10-03 13:08:27,508704,15.473814471,0.00024725421,97.396928,352.89982,223.85205,136.25334,0,999,10582,0.0030042356,0.0015647015,0,4831630,0 UMBRA-08,1 58292U 23174AN  25276.54754061  .00156470  00000-0  30042-2 0  9991,2 58292  97.3969 352.8998 0002473 223.8521 136.2533 15.47381447105827,2023-174AN,58292,6802.527,93.060,426.074,422.710,1
GENERATED VIA SPACETRACK.ORG API,18 SPCS,58292,UMBRA-08,PAYLOAD,U,23174AN,2025-10-04 10:52:02,792640,15.47636178,0.0002482,97.3969,353.825,224.2982,135.807,0,999,10596,0.0026516,0.00139002,0,4832169,0 UMBRA-08,1 58292U 23174AN  25277.45281010  .00139002  00000-0  26516-2 0  9994,2 58292  97.3969 353.8250 0002482 224.2982 135.8070 15.47636178105965,2023-174AN,58292,6801.780,93.045,425.333,421.957,1
GENERATED VIA SPACETRACK.ORG API,18 SPCS,58292,UMBRA-08,PAYLOAD,U,23174AN,2025-10-04 20:10:39,652608,15.47753245,0.0002485,97.3968,354.2214,225.4759,134.6288,0,999,10602,0.0027359,0.00144098,0,4832725,0 UMBRA-08,1 58292U 23174AN  25277.84073672  .00144098  00000-0  27359-2 0  9997,2 58292  97.3968 354.2214 0002485 225.4759 134.6288 15.47753245106028,2023-174AN,58292,6801.437,93.038,424.992,421.612,1
GENERATED VIA SPACETRACK.ORG API,18 SPCS,58292,UMBRA-08,PAYLOAD,U,23174AN,2025-10-05 03:56:08,575296,15.47836829,0.0002527,97.3968,354.5519,223.6785,136.4265,0,999,10607,0.0022215,0.0011692,0,4833542,0 UMBRA-08,1 58292U 23174AN  25278.16398814  .00116920  00000-0  22215-2 0  9990,2 58292  97.3968 354.5519 0002527 223.6785 136.4265 15.47836829106075,2023-174AN,58292,6801.192,93.033,424.776,421.339,1
GENERATED VIA SPACETRACK.ORG API,18 SPCS,58292,UMBRA-08,PAYLOAD,U,23174AN,2025-10-05 11:41:36,62016,15.47911807,0.000248,97.3969,354.8828,223.4273,136.6782,0,999,10612,0.0022553,0.00119041,0,4834249,0 UMBRA-08,1 58292U 23174AN  25278.48722294  .00119041  00000-0  22553-2 0  9990,2 58292  97.3969 354.8828 0002480 223.4273 136.6782 15.47911807106122,2023-174AN,58292,6800.973,93.029,424.524,421.151,1
GENERATED VIA SPACETRACK.ORG API,18 SPCS,58292,UMBRA-08,PAYLOAD,U,23174AN,2025-10-06 04:45:31,704768,15.48079095,0.0002525,97.3967,355.6098,223.4394,136.6657,0,999,10623,0.0019667,0.001042,0,4835164,0 UMBRA-08,1 58292U 23174AN  25279.19828362  .00104200  00000-0  19667-2 0  9995,2 58292  97.3967 355.6098 0002525 223.4394 136.6657 15.48079095106230,2023-174AN,58292,6800.483,93.019,424.065,420.631,1
GENERATED VIA SPACETRACK.ORG API,18 SPCS,58292,UMBRA-08,PAYLOAD,U,23174AN,2025-10-06 10:57:50,391072,15.48130156,0.000251,97.3966,355.8748,223.9255,136.1796,0,999,10627,0.0019683,0.00104476,0,4836029,0 UMBRA-08,1 58292U 23174AN  25279.45683323  .00104476  00000-0  19683-2 0  9993,2 58292  97.3966 355.8748 0002510 223.9255 136.1796 15.48130156106277,2023-174AN,58292,6800.333,93.015,423.905,420.491,1
GENERATED VIA SPACETRACK.ORG API,18 SPCS,58292,UMBRA-08,PAYLOAD,U,23174AN,2025-10-06 23:22:25,311648,15.48250192,0.00025397091,97.396429,356.40365,224.42617,135.67853,0,999,10635,0.0023231432,0.0012415275,0,4836352,0 UMBRA-08,1 58292U 23174AN  25279.97390407  .00124153  00000-0  23231-2 0  9996,2 58292  97.3964 356.4037 0002540 224.4262 135.6785 15.48250192106354,2023-174AN,58292,6799.982,93.008,423.574,420.120,1
GENERATED VIA SPACETRACK.ORG API,18 SPCS,58292,UMBRA-08,PAYLOAD,U,23174AN,2025-10-07 05:34:41,359296,15.483208293,0.00025174111,97.396351,356.66819,224.23456,135.87039,0,999,10639,0.0023080681,0.0012364109,0,4836423,0 UMBRA-08,1 58292U 23174AN  25280.23242314  .00123641  00000-0  23081-2 0  9994,2 58292  97.3964 356.6682 0002517 224.2346 135.8704 15.48320829106399,2023-174AN,58292,6799.775,93.004,423.352,419.928,1
GENERATED VIA SPACETRACK.ORG API,18 SPCS,58292,UMBRA-08,PAYLOAD,U,23174AN,2025-10-07 14:53:03,766272,15.484164601,0.00024666339,97.396212,357.06544,224.6297,135.47552,0,999,10645,0.0024941023,0.0013423988,0,4836461,0 UMBRA-08,1 58292U 23174AN  25280.62018248  .00134240  00000-0  24941-2 0  9997,2 58292  97.3962 357.0654 0002467 224.6297 135.4755 15.48416460106450,2023-174AN,58292,6799.495,92.998,423.037,419.683,1
GENERATED VIA SPACETRACK.ORG API,18 SPCS,58292,UMBRA-08,PAYLOAD,U,23174AN,2025-10-07 19:32:14,53056,15.48478804,0.0002499,97.3961,357.2636,224.2947,135.8104,0,999,10648,0.0028005,0.00151402,0,4836784,0 UMBRA-08,1 58292U 23174AN  25280.81405154  .00151402  00000-0  28005-2 0  9998,2 58292  97.3961 357.2636 0002499 224.2947 135.8104 15.48478804106489,2023-174AN,58292,6799.312,92.994,422.877,419.478,1
GENERATED VIA SPACETRACK.ORG API,18 SPCS,58292,UMBRA-08,PAYLOAD,U,23174AN,2025-10-07 22:38:20,515200,15.485201524,0.00025262037,97.396057,357.39567,223.77026,136.3348,0,999,10650,0.0028626416,0.0015505797,0,4836982,0 UMBRA-08,1 58292U 23174AN  25280.94329300  .00155058  00000-0  28626-2 0  9990,2 58292  97.3961 357.3957 0002526 223.7703 136.3348 15.48520152106504,2023-174AN,58292,6799.191,92.992,422.774,419.339,1
GENERATED VIA SPACETRACK.ORG API,18 SPCS,58292,UMBRA-08,PAYLOAD,U,23174AN,2025-10-08 04:50:32,642016,15.4859658,0.0002529,97.396,357.6602,222.3199,137.7857,0,999,10654,0.0024488,0.00132599,0,4837406,0 UMBRA-08,1 58292U 23174AN  25281.20176669  .00132599  00000-0  24488-2 0  9995,2 58292  97.3960 357.6602 0002529 222.3199 137.7857 15.48596580106542,2023-174AN,58292,6798.968,92.987,422.552,419.113,1
GENERATED VIA SPACETRACK.ORG API,18 SPCS,58292,UMBRA-08,PAYLOAD,U,23174AN,2025-10-08 04:50:32,642016,15.485965798,0.00025285107,97.39598,357.66023,222.31987,137.78571,0,999,10654,0.0024487793,0.0013259942,0,4837766,0 UMBRA-08,1 58292U 23174AN  25281.20176669  .00132599  00000-0  24488-2 0  9995,2 58292  97.3960 357.6602 0002529 222.3199 137.7857 15.48596580106542,2023-174AN,58292,6798.968,92.987,422.552,419.114,1
GENERATED VIA SPACETRACK.ORG API,18 SPCS,58292,UMBRA-08,PAYLOAD,U,23174AN,2025-10-08 15:41:51,429408,15.48715784,0.0002463,97.3956,358.1237,224.3754,135.73,0,999,10661,0.0023514,0.00127771,0,4838817,0 UMBRA-08,1 58292U 23174AN  25281.65406747  .00127771  00000-0  23514-2 0  9992,2 58292  97.3956 358.1237 0002463 224.3754 135.7300 15.48715784106611,2023-174AN,58292,6798.619,92.980,422.158,418.809,1
GENERATED VIA SPACETRACK.ORG API,18 SPCS,58292,UMBRA-08,PAYLOAD,U,23174AN,2025-10-08 15:41:51,429408,15.487157843,0.00024626646,97.395557,358.12366,224.37536,135.72999,0,999,10661,0.0023513737,0.0012777135,0,4839045,0 UMBRA-08,1 58292U 23174AN  25281.65406747  .00127771  00000-0  23514-2 0  9992,2 58292  97.3956 358.1237 0002463 224.3754 135.7300 15.48715784106611,2023-174AN,58292,6798.619,92.980,422.158,418.810,1
GENERATED VIA SPACETRACK.ORG API,18 SPCS,58292,UMBRA-08,PAYLOAD,U,23174AN,2025-10-09 04:06:09,70848,15.4885108,0.000251,97.3953,358.6524,222.5809,137.5248,0,999,10669,0.0019983,0.0010882,0,4839542,0 UMBRA-08,1 58292U 23174AN  25282.17093832  .00108820  00000-0  19983-2 0  9996,2 58292  97.3953 358.6524 0002510 222.5809 137.5248 15.48851080106695,2023-174AN,58292,6798.223,92.972,421.794,418.382,1
GENERATED VIA SPACETRACK.ORG API,18 SPCS,58292,UMBRA-08,PAYLOAD,U,23174AN,2025-10-09 04:06:09,71712,15.4885108,0.00025099988,97.395277,358.65237,222.58087,137.52477,0,999,10669,0.0019982632,0.0010881983,0,4839836,0 UMBRA-08,1 58292U 23174AN  25282.17093833  .00108820  00000-0  19983-2 0  9997,2 58292  97.3953 358.6524 0002510 222.5809 137.5248 15.48851080106695,2023-174AN,58292,6798.223,92.972,421.794,418.382,1
GENERATED VIA SPACETRACK.ORG API,18 SPCS,58292,UMBRA-08,PAYLOAD,U,23174AN,2025-10-09 11:51:18,350496,15.489226391,0.00024513497,97.39516,358.98361,222.41591,137.69024,0,999,10674,0.0020990262,0.0011468258,0,4839856,0 UMBRA-08,1 58292U 23174AN  25282.49396239  .00114683  00000-0  20990-2 0  9992,2 58292  97.3952 358.9836 0002451 222.4159 137.6902 15.48922639106747,2023-174AN,58292,6798.014,92.968,421.545,418.212,1
GENERATED VIA SPACETRACK.ORG API,18 SPCS,58292,UMBRA-08,PAYLOAD,U,23174AN,2025-10-09 14:57:21,740256,15.48949594,0.0002437,97.3951,359.1159,222.9714,137.1347,0,999,10676,0.0020384,0.00111424,0,4840418,0 UMBRA-08,1 58292U 23174AN  25282.62316829  .00111424  00000-0  20384-2 0  9991,2 58292  97.3951 359.1159 0002437 222.9714 137.1347 15.48949594106762,2023-174AN,58292,6797.935,92.966,421.456,418.143,1
GENERATED VIA SPACETRACK.ORG API,18 SPCS,58292,UMBRA-08,PAYLOAD,U,23174AN,2025-10-09 14:57:21,740256,15.489495937,0.00024373372,97.395105,359.11595,222.97138,137.13469,0,999,10676,0.0020383698,0.0011142425,0,4840951,0 UMBRA-08,1 58292U 23174AN  25282.62316829  .00111424  00000-0  20384-2 0  9991,2 58292  97.3951 359.1160 0002437 222.9714 137.1347 15.48949594106764,2023-174AN,58292,6797.935,92.966,421.457,418.143,1
GENERATED VIA SPACETRACK.ORG API,18 SPCS,58292,UMBRA-08,PAYLOAD,U,23174AN,2025-10-10 03:21:33,13152,15.49066734,0.0002502,97.3949,359.6448,221.9305,138.1754,0,999,10684,0.0018734,0.00102702,0,4841317,0 UMBRA-08,1 58292U 23174AN  25283.13996543  .00102702  00000-0  18734-2 0  9990,2 58292  97.3949 359.6448 0002502 221.9305 138.1754 15.49066734106842,2023-174AN,58292,6797.592,92.959,421.158,417.756,1
GENERATED VIA SPACETRACK.ORG API,18 SPCS,58292,UMBRA-08,PAYLOAD,U,23174AN,2025-10-10 04:54:34,160256,15.490906564,0.00024897616,97.394992,359.71097,222.86395,137.24175,0,999,10685,0.0022051895,0.001212987,0,4841636,0 UMBRA-08,1 58292U 23174AN  25283.20456204  .00121299  00000-0  22052-2 0  9993,2 58292  97.3950 359.7110 0002490 222.8640 137.2418 15.49090656106857,2023-174AN,58292,6797.522,92.958,421.079,417.695,1
